{"fetched_at":"2026-03-29T02:12:04Z","count":15717,"tles":[{"name":"BEIDOU-2 IGSO-3 (C08)","line1":"1 37384U 11013A   26085.80669791 -.00000176  00000+0  00000+0 0  9991","line2":"2 37384  62.3016  40.9294 0034198 190.2272 350.7783  1.00287208 54832","category":"GPS"}]}